CCSDS_OMM_VERS = 2.0
CREATION_DATE  = 
ORIGINATOR     = 

OBJECT_NAME    = ATLAS CENTAUR 2
OBJECT_ID      = 1963-047A
CENTER_NAME    = EARTH
REF_FRAME      = TEME
TIME_SYSTEM    = UTC
MEAN_ELEMENT_THEORY = SGP/SGP4

EPOCH          = 2025-12-01T08:06:10.996128
MEAN_MOTION    = 14.11655326
ECCENTRICITY   = .0549429
INCLINATION    = 30.3590
RA_OF_ASC_NODE = 25.1404
ARG_OF_PERICENTER = 293.7396
MEAN_ANOMALY   = 60.6514

EPHEMERIS_TYPE = 0
CLASSIFICATION_TYPE = U
NORAD_CAT_ID   = 694
ELEMENT_SET_NO = 999
REV_AT_EPOCH   = 11771
BSTAR          = .50541E-3
MEAN_MOTION_DOT = .4222E-4
MEAN_MOTION_DDOT = 0

CCSDS_OMM_VERS = 2.0
CREATION_DATE  = 
ORIGINATOR     = 

OBJECT_NAME    = THOR AGENA D R/B
OBJECT_ID      = 1964-002A
CENTER_NAME    = EARTH
REF_FRAME      = TEME
TIME_SYSTEM    = UTC
MEAN_ELEMENT_THEORY = SGP/SGP4

EPOCH          = 2025-12-01T11:43:10.612128
MEAN_MOTION    = 14.33948839
ECCENTRICITY   = .003284
INCLINATION    = 99.1220
RA_OF_ASC_NODE = 338.4987
ARG_OF_PERICENTER = 182.7332
MEAN_ANOMALY   = 177.3676

EPHEMERIS_TYPE = 0
CLASSIFICATION_TYPE = U
NORAD_CAT_ID   = 733
ELEMENT_SET_NO = 999
REV_AT_EPOCH   = 22422
BSTAR          = .1246E-3
MEAN_MOTION_DOT = .301E-5
MEAN_MOTION_DDOT = 0

CCSDS_OMM_VERS = 2.0
CREATION_DATE  = 
ORIGINATOR     = 

OBJECT_NAME    = SL-3 R/B
OBJECT_ID      = 1964-053B
CENTER_NAME    = EARTH
REF_FRAME      = TEME
TIME_SYSTEM    = UTC
MEAN_ELEMENT_THEORY = SGP/SGP4

EPOCH          = 2025-12-01T11:38:50.375328
MEAN_MOTION    = 14.61257391
ECCENTRICITY   = .0072878
INCLINATION    = 65.0769
RA_OF_ASC_NODE = 259.1219
ARG_OF_PERICENTER = 324.1175
MEAN_ANOMALY   = 35.5041

EPHEMERIS_TYPE = 0
CLASSIFICATION_TYPE = U
NORAD_CAT_ID   = 877
ELEMENT_SET_NO = 999
REV_AT_EPOCH   = 25244
BSTAR          = .13222E-3
MEAN_MOTION_DOT = .554E-5
MEAN_MOTION_DDOT = 0

CCSDS_OMM_VERS = 2.0
CREATION_DATE  = 
ORIGINATOR     = 

OBJECT_NAME    = SL-8 R/B
OBJECT_ID      = 1967-045B
CENTER_NAME    = EARTH
REF_FRAME      = TEME
TIME_SYSTEM    = UTC
MEAN_ELEMENT_THEORY = SGP/SGP4

EPOCH          = 2025-12-01T00:39:38.167776
MEAN_MOTION    = 14.45520142
ECCENTRICITY   = .00648519
INCLINATION    = 74.0091
RA_OF_ASC_NODE = 172.3324
ARG_OF_PERICENTER = 204.3317
MEAN_ANOMALY   = 155.4776

EPHEMERIS_TYPE = 0
CLASSIFICATION_TYPE = U
NORAD_CAT_ID   = 2802
ELEMENT_SET_NO = 999
REV_AT_EPOCH   = 7476
BSTAR          = .98799079E-4
MEAN_MOTION_DOT = .329E-5
MEAN_MOTION_DDOT = 0

CCSDS_OMM_VERS = 2.0
CREATION_DATE  = 
ORIGINATOR     = 

OBJECT_NAME    = SL-8 R/B
OBJECT_ID      = 1968-040B
CENTER_NAME    = EARTH
REF_FRAME      = TEME
TIME_SYSTEM    = UTC
MEAN_ELEMENT_THEORY = SGP/SGP4

EPOCH          = 2025-12-01T12:29:35.515680
MEAN_MOTION    = 15.02403721
ECCENTRICITY   = .0024679
INCLINATION    = 74.0296
RA_OF_ASC_NODE = 154.1549
ARG_OF_PERICENTER = 358.2131
MEAN_ANOMALY   = 1.8965

EPHEMERIS_TYPE = 0
CLASSIFICATION_TYPE = U
NORAD_CAT_ID   = 3230
ELEMENT_SET_NO = 999
REV_AT_EPOCH   = 7526
BSTAR          = .33741E-3
MEAN_MOTION_DOT = .4459E-4
MEAN_MOTION_DDOT = 0

CCSDS_OMM_VERS = 2.0
CREATION_DATE  = 
ORIGINATOR     = 

OBJECT_NAME    = OAO 2
OBJECT_ID      = 1968-110A
CENTER_NAME    = EARTH
REF_FRAME      = TEME
TIME_SYSTEM    = UTC
MEAN_ELEMENT_THEORY = SGP/SGP4

EPOCH          = 2025-12-01T09:42:19.777248
MEAN_MOTION    = 14.47231756
ECCENTRICITY   = .0005002
INCLINATION    = 34.9929
RA_OF_ASC_NODE = 93.9392
ARG_OF_PERICENTER = 133.1074
MEAN_ANOMALY   = 227.0035

EPHEMERIS_TYPE = 0
CLASSIFICATION_TYPE = U
NORAD_CAT_ID   = 3597
ELEMENT_SET_NO = 999
REV_AT_EPOCH   = 485
BSTAR          = .97831E-4
MEAN_MOTION_DOT = .343E-5
MEAN_MOTION_DDOT = 0

CCSDS_OMM_VERS = 2.0
CREATION_DATE  = 
ORIGINATOR     = 

OBJECT_NAME    = ISIS 1
OBJECT_ID      = 1969-009A
CENTER_NAME    = EARTH
REF_FRAME      = TEME
TIME_SYSTEM    = UTC
MEAN_ELEMENT_THEORY = SGP/SGP4

EPOCH          = 2025-12-01T11:09:48.596256
MEAN_MOTION    = 11.30346981
ECCENTRICITY   = .1706918
INCLINATION    = 88.4489
RA_OF_ASC_NODE = 166.0296
ARG_OF_PERICENTER = 287.4868
MEAN_ANOMALY   = 54.7256

EPHEMERIS_TYPE = 0
CLASSIFICATION_TYPE = U
NORAD_CAT_ID   = 3669
ELEMENT_SET_NO = 999
REV_AT_EPOCH   = 33743
BSTAR          = .16937E-3
MEAN_MOTION_DOT = .232E-5
MEAN_MOTION_DDOT = 0

CCSDS_OMM_VERS = 2.0
CREATION_DATE  = 
ORIGINATOR     = 

OBJECT_NAME    = SERT 2
OBJECT_ID      = 1970-009A
CENTER_NAME    = EARTH
REF_FRAME      = TEME
TIME_SYSTEM    = UTC
MEAN_ELEMENT_THEORY = SGP/SGP4

EPOCH          = 2025-12-01T11:27:30.766752
MEAN_MOTION    = 13.58715351
ECCENTRICITY   = .0005638
INCLINATION    = 99.2633
RA_OF_ASC_NODE = 279.0073
ARG_OF_PERICENTER = 59.7245
MEAN_ANOMALY   = 53.3204

EPHEMERIS_TYPE = 0
CLASSIFICATION_TYPE = U
NORAD_CAT_ID   = 4327
ELEMENT_SET_NO = 999
REV_AT_EPOCH   = 76655
BSTAR          = .95435E-4
MEAN_MOTION_DOT = .29E-6
MEAN_MOTION_DDOT = 0

CCSDS_OMM_VERS = 2.0
CREATION_DATE  = 
ORIGINATOR     = 

OBJECT_NAME    = SL-3 R/B
OBJECT_ID      = 1971-028B
CENTER_NAME    = EARTH
REF_FRAME      = TEME
TIME_SYSTEM    = UTC
MEAN_ELEMENT_THEORY = SGP/SGP4

EPOCH          = 2025-12-01T11:19:03.652320
MEAN_MOTION    = 15.53579421
ECCENTRICITY   = .0019647
INCLINATION    = 81.2379
RA_OF_ASC_NODE = 172.6135
ARG_OF_PERICENTER = 281.4105
MEAN_ANOMALY   = 78.4937

EPHEMERIS_TYPE = 0
CLASSIFICATION_TYPE = U
NORAD_CAT_ID   = 5118
ELEMENT_SET_NO = 999
REV_AT_EPOCH   = 97338
BSTAR          = .46211E-3
MEAN_MOTION_DOT = .29758E-3
MEAN_MOTION_DDOT = 0

CCSDS_OMM_VERS = 2.0
CREATION_DATE  = 
ORIGINATOR     = 

OBJECT_NAME    = ASTEX 1
OBJECT_ID      = 1971-089A
CENTER_NAME    = EARTH
REF_FRAME      = TEME
TIME_SYSTEM    = UTC
MEAN_ELEMENT_THEORY = SGP/SGP4

EPOCH          = 2025-12-01T11:04:10.563168
MEAN_MOTION    = 14.50619635
ECCENTRICITY   = .0017529
INCLINATION    = 92.7132
RA_OF_ASC_NODE = 119.9705
ARG_OF_PERICENTER = 60.7114
MEAN_ANOMALY   = 299.5841

EPHEMERIS_TYPE = 0
CLASSIFICATION_TYPE = U
NORAD_CAT_ID   = 5560
ELEMENT_SET_NO = 999
REV_AT_EPOCH   = 84806
BSTAR          = .18971E-3
MEAN_MOTION_DOT = .744E-5
MEAN_MOTION_DDOT = 0

CCSDS_OMM_VERS = 2.0
CREATION_DATE  = 
ORIGINATOR     = 

OBJECT_NAME    = SL-8 R/B
OBJECT_ID      = 1971-119B
CENTER_NAME    = EARTH
REF_FRAME      = TEME
TIME_SYSTEM    = UTC
MEAN_ELEMENT_THEORY = SGP/SGP4

EPOCH          = 2025-12-01T11:13:11.981856
MEAN_MOTION    = 14.35361240
ECCENTRICITY   = .0560388
INCLINATION    = 73.8891
RA_OF_ASC_NODE = 358.9940
ARG_OF_PERICENTER = 345.5345
MEAN_ANOMALY   = 13.0301

EPHEMERIS_TYPE = 0
CLASSIFICATION_TYPE = U
NORAD_CAT_ID   = 5730
ELEMENT_SET_NO = 999
REV_AT_EPOCH   = 64138
BSTAR          = .61964E-3
MEAN_MOTION_DOT = .11808E-3
MEAN_MOTION_DDOT = 0

CCSDS_OMM_VERS = 2.0
CREATION_DATE  = 
ORIGINATOR     = 

OBJECT_NAME    = OAO 3 (COPERNICUS)
OBJECT_ID      = 1972-065A
CENTER_NAME    = EARTH
REF_FRAME      = TEME
TIME_SYSTEM    = UTC
MEAN_ELEMENT_THEORY = SGP/SGP4

EPOCH          = 2025-12-01T12:35:33.462240
MEAN_MOTION    = 14.59889539
ECCENTRICITY   = .0005955
INCLINATION    = 35.0039
RA_OF_ASC_NODE = 136.5526
ARG_OF_PERICENTER = 75.1896
MEAN_ANOMALY   = 321.8948

EPHEMERIS_TYPE = 0
CLASSIFICATION_TYPE = U
NORAD_CAT_ID   = 6153
ELEMENT_SET_NO = 999
REV_AT_EPOCH   = 83184
BSTAR          = .10098E-3
MEAN_MOTION_DOT = .47E-5
MEAN_MOTION_DDOT = 0

