ATLAS CENTAUR 2         
1 00694U 63047A   25335.33762727  .00004222  00000+0  50541-3 0  9991
2 00694  30.3590  25.1404 0549429 293.7396  60.6514 14.11655326117712
THOR AGENA D R/B        
1 00733U 64002A   25335.48831727  .00000301  00000+0  12460-3 0  9992
2 00733  99.1220 338.4987 0032840 182.7332 177.3676 14.33948839224224
SL-3 R/B                
1 00877U 64053B   25335.48530527  .00000554  00000+0  13222-3 0  9998
2 00877  65.0769 259.1219 0072878 324.1175  35.5041 14.61257391252445
SL-8 R/B                
1 02802U 67045B   25335.02752509  .00000329  00000+0  98799-4 0  9991
2 02802  74.0091 172.3324 0064851 204.3317 155.4776 14.45520142 74768
SL-8 R/B                
1 03230U 68040B   25335.52054995  .00004459  00000+0  33741-3 0  9995
2 03230  74.0296 154.1549 0024679 358.2131   1.8965 15.02403721 75262
OAO 2                   
1 03597U 68110A   25335.40439557  .00000343  00000+0  97831-4 0  9996
2 03597  34.9929  93.9392 0005002 133.1074 227.0035 14.47231756  4859
ISIS 1                  
1 03669U 69009A   25335.46514579  .00000232  00000+0  16937-3 0  9992
2 03669  88.4489 166.0296 1706918 287.4868  54.7256 11.30346981337437
SERT 2                  
1 04327U 70009A   25335.47743943  .00000029  00000+0  95435-4 0  9991
2 04327  99.2633 279.0073 0005638  59.7245  53.3204 13.58715351766557
SL-3 R/B                
1 05118U 71028B   25335.47157005  .00029758  00000+0  46211-3 0  9997
2 05118  81.2379 172.6135 0019647 281.4105  78.4937 15.53579421973380
ASTEX 1                 
1 05560U 71089A   25335.46123337  .00000744  00000+0  18971-3 0  9991
2 05560  92.7132 119.9705 0017529  60.7114 299.5841 14.50619635848061
SL-8 R/B                
1 05730U 71119B   25335.46749979  .00011808  00000+0  61964-3 0  9993
2 05730  73.8891 358.9940 0560388 345.5345  13.0301 14.35361240641389
OAO 3 (COPERNICUS)      
1 06153U 72065A   25335.52469285  .00000470  00000+0  10098-3 0  9995
2 06153  35.0039 136.5526 0005955  75.1896 321.8948 14.59889539831845
